{"type": "FeatureCollection", "features": [{"type": "Feature", "id": "Bagbag", "properties": {"barangay": "Bagbag", "osm_name": "Bagbag", "osm_id": 399346}, "geometry": {"type": "MultiPolygon", "coordinates": [[[[121.0179631, 14.7033858], [121.0178562, 14.7032227], [121.0177166, 14.7030583], [121.0176377, 14.7029552], [121.0175811, 14.7028717], [121.0175192, 14.7027566], [121.0174702, 14.7026572], [121.0173968, 14.7024994], [121.0173523, 14.7023908], [121.0173277, 14.7022658], [121.0173175, 14.7021902], [121.0173206, 14.7020925], [121.0173586, 14.7019482], [121.017406, 14.7018209], [121.0175321, 14.7015462], [121.0176311, 14.7013391], [121.0177186, 14.7011888], [121.0177798, 14.7010692], [121.0178264, 14.7009477], [121.0178489, 14.700854], [121.0178713, 14.7007532], [121.0179141, 14.7006363], [121.0179549, 14.7005441], [121.0180124, 14.7004239], [121.018091, 14.7003174], [121.0181807, 14.700236], [121.0183224, 14.7001], [121.0184405, 14.7000049], [121.0185728, 14.6999203], [121.0187004, 14.6998547], [121.0188854, 14.6997471], [121.0190209, 14.6996618], [121.0191466, 14.6995651], [121.0192927, 14.6994575], [121.0194197, 14.6993709], [121.0195085, 14.6992806], [121.0195921, 14.6991921], [121.0196704, 14.6990902], [121.0197382, 14.6989858], [121.0197961, 14.6988904], [121.0198784, 14.6987631], [121.0199679, 14.6986358], [121.0200508, 14.6985307], [121.0201442, 14.6983862], [121.0201949, 14.6982838], [121.0202416, 14.6982042], [121.0202798, 14.6981558], [121.0203443, 14.6980973], [121.0204206, 14.6980514], [121.020516, 14.6980196], [121.020643, 14.6979757], [121.0207727, 14.6979171], [121.0208957, 14.6978611], [121.0209951, 14.6978134], [121.0210892, 14.6977491], [121.0211655, 14.6976861], [121.0212261, 14.6976332], [121.021264, 14.6976025], [121.0213077, 14.6975702], [121.0213722, 14.6975206], [121.021434, 14.6974601], [121.0215334, 14.6973621], [121.0215985, 14.697292], [121.0216795, 14.6972017], [121.0217683, 14.6971036], [121.0218144, 14.6970521], [121.0218605, 14.6969891], [121.0219065, 14.6969299], [121.0219631, 14.6968344], [121.0220388, 14.6967224], [121.0221, 14.6966453], [121.0221395, 14.6965823], [121.0222198, 14.6964766], [121.022277, 14.6964124], [121.0223573, 14.6963283], [121.0224159, 14.6962698], [121.0225119, 14.6961978], [121.0225922, 14.6961406], [121.0227317, 14.6960578], [121.0228403, 14.6960094], [121.0229732, 14.695942], [121.0231009, 14.6958681], [121.0231772, 14.6958108], [121.0232193, 14.6957688], [121.0232595, 14.6957115], [121.0232819, 14.6956536], [121.0233088, 14.6955696], [121.0233417, 14.695448], [121.0233832, 14.6953194], [121.0234181, 14.6952131], [121.0234641, 14.6950737], [121.023503, 14.6949763], [121.0235438, 14.694828], [121.0235661, 14.6947173], [121.0235964, 14.6946339], [121.0236339, 14.6945734], [121.0236885, 14.694497], [121.0237557, 14.6944219], [121.0238096, 14.6943761], [121.0238965, 14.6943252], [121.0239992, 14.6942717], [121.0240985, 14.6942189], [121.0241953, 14.6941495], [121.0242933, 14.6940845], [121.0243756, 14.6940152], [121.0244374, 14.6939579], [121.0244795, 14.6938891], [121.0245063, 14.6938267], [121.0245263, 14.6937656], [121.0245493, 14.6936733], [121.0245618, 14.6935868], [121.0245644, 14.6935199], [121.0245497, 14.6934197], [121.0179631, 14.7033858]]], [[[121.0329917, 14.6932075], [121.0304123, 14.6932694], [121.0302277, 14.6932702], [121.0329917, 14.6932075]]], [[[121.0335089, 14.6949904], [121.0332348, 14.6947806], [121.0332166, 14.6946514], [121.0331741, 14.6944892], [121.0331634, 14.6942608], [121.0331795, 14.6939236], [121.0331929, 14.693683], [121.0331795, 14.6935603], [121.0331266, 14.693461], [121.0335089, 14.6949904]]], [[[121.0441829, 14.6991949], [121.0445732, 14.6995532], [121.0456957, 14.6983619], [121.0462233, 14.6978464], [121.0464912, 14.6974448], [121.0469145, 14.6967679], [121.0462817, 14.6963882], [121.0462606, 14.6963756], [121.0464346, 14.6958712], [121.0464052, 14.6951471], [121.0464316, 14.694348], [121.0431344, 14.6943537], [121.0428745, 14.6945919], [121.0423943, 14.6941274], [121.0419439, 14.6945787], [121.0418441, 14.6947696], [121.0413714, 14.6947824], [121.0412296, 14.6946274], [121.0406746, 14.6945761], [121.0406365, 14.6947486], [121.0399055, 14.6944479], [121.0389923, 14.6942357], [121.0383571, 14.6937209], [121.0381941, 14.6942274], [121.0372684, 14.6947439], [121.0368907, 14.6951726], [121.0363228, 14.6950814], [121.0363038, 14.6953369], [121.035819, 14.6948005], [121.0356066, 14.6945649], [121.0351733, 14.6946443], [121.0347903, 14.6947123], [121.0347251, 14.6947424], [121.0335089, 14.6949904], [121.0441829, 14.6991949]]], [[[121.0198579, 14.7036248], [121.0200902, 14.7036547], [121.0205025, 14.7037499], [121.020747, 14.7038084], [121.0210019, 14.7038702], [121.0213328, 14.7039074], [121.0221108, 14.7038071], [121.0222216, 14.7036709], [121.0224269, 14.7030731], [121.0226614, 14.7024115], [121.0235882, 14.7023361], [121.0244882, 14.7022582], [121.0250886, 14.7022745], [121.0260183, 14.702268], [121.0260003, 14.7021657], [121.0263227, 14.7017582], [121.026434, 14.701849], [121.0265272, 14.7017354], [121.026972, 14.7011391], [121.0270976, 14.7006934], [121.0275992, 14.7005645], [121.0276272, 14.7003574], [121.0277396, 14.7002343], [121.0277865, 14.7002296], [121.0278093, 14.7002729], [121.0282816, 14.7002994], [121.0283223, 14.700203], [121.0282925, 14.7000479], [121.0288833, 14.6991261], [121.0292419, 14.6991672], [121.0294994, 14.6992585], [121.0305294, 14.6990012], [121.0308073, 14.6990593], [121.0307925, 14.6993818], [121.0313062, 14.6993467], [121.031742, 14.6993117], [121.0321595, 14.6994207], [121.0323774, 14.6992339], [121.0325253, 14.6992806], [121.0325111, 14.6995945], [121.0325398, 14.699613], [121.0327372, 14.6997469], [121.0328767, 14.6998208], [121.032988, 14.6998506], [121.0331061, 14.6998306], [121.0333293, 14.6997813], [121.0336237, 14.6998247], [121.0336968, 14.6998694], [121.033853, 14.6998643], [121.0339308, 14.6998325], [121.0344328, 14.69978], [121.0345356, 14.6996659], [121.0348171, 14.6998662], [121.0354332, 14.6995803], [121.0355857, 14.6994939], [121.0357553, 14.6991521], [121.0365931, 14.6993031], [121.0370751, 14.699396], [121.0373931, 14.6994582], [121.0379717, 14.6995824], [121.0387131, 14.6997286], [121.0393129, 14.6995139], [121.0397754, 14.6993584], [121.0398597, 14.6996087], [121.0399299, 14.6995906], [121.0407785, 14.6999041], [121.0407691, 14.6998886], [121.0409944, 14.6997939], [121.0410108, 14.6998224], [121.0411308, 14.6997855], [121.0412733, 14.6997679], [121.0413825, 14.6997748], [121.0414314, 14.6997848], [121.0415434, 14.6994038], [121.0415627, 14.6993029], [121.0416468, 14.699179], [121.0416877, 14.6991852], [121.0417394, 14.6991287], [121.0418215, 14.6990399], [121.0418792, 14.6989406], [121.0419529, 14.6988521], [121.0421053, 14.6986468], [121.0422597, 14.6986306], [121.0422812, 14.6986556], [121.0424227, 14.6986614], [121.0424255, 14.6986673], [121.0424637, 14.6986663], [121.0424656, 14.6986572], [121.0426982, 14.6986643], [121.0427153, 14.6986741], [121.0427824, 14.6986724], [121.0427837, 14.6986497], [121.0431167, 14.6986514], [121.0431515, 14.6986611], [121.0433011, 14.698652], [121.0433514, 14.6986313], [121.0436138, 14.6986107], [121.0441829, 14.6991949], [121.0198579, 14.7036248]]], [[[121.0198579, 14.7036248], [121.0194527, 14.703506], [121.0193842, 14.7034905], [121.0189913, 14.7033725], [121.0189555, 14.7033939], [121.0188763, 14.7034459], [121.0187187, 14.703518], [121.0184585, 14.7036375], [121.0183135, 14.7035407], [121.0182391, 14.7034735], [121.0179631, 14.7033858], [121.0198579, 14.7036248]]]]}}, {"type": "Feature", "id": "Capri", "properties": {"barangay": "Capri", "osm_name": "Capri", "osm_id": 271003}, "geometry": {"type": "MultiPolygon", "coordinates": [[[[121.0262578, 14.7165558], [121.0263334, 14.7166825], [121.0264495, 14.7169023], [121.026848, 14.7170654], [121.0267818, 14.7176099], [121.0268137, 14.7176284], [121.0272651, 14.7182878], [121.0274681, 14.7182784], [121.0274814, 14.7182027], [121.0277302, 14.7182557], [121.0279303, 14.7182935], [121.0280635, 14.7182715], [121.0281921, 14.7182099], [121.0283538, 14.7181334], [121.0284906, 14.718125], [121.0284984, 14.7182305], [121.0286957, 14.7182152], [121.0288427, 14.7182837], [121.0290244, 14.7181807], [121.0292492, 14.7179835], [121.0294287, 14.7176684], [121.0295253, 14.7174881], [121.0296751, 14.7174014], [121.0301302, 14.7171201], [121.0302129, 14.716972], [121.0302534, 14.7168393], [121.0302956, 14.7164841], [121.0303341, 14.7163781], [121.0301779, 14.7161044], [121.0300796, 14.7159522], [121.0300151, 14.7159167], [121.0299112, 14.7158015], [121.0296573, 14.7154233], [121.0296347, 14.7153637], [121.02953, 14.7151169], [121.0294548, 14.7149835], [121.0293087, 14.7147728], [121.0262578, 14.7165558]]], [[[121.0293087, 14.7147728], [121.0291542, 14.7153668], [121.0290138, 14.7156003], [121.0287349, 14.7157145], [121.0283289, 14.7157662], [121.0281002, 14.7157648], [121.0279029, 14.7158203], [121.0270821, 14.7161971], [121.0266213, 14.7163382], [121.0262578, 14.7165558], [121.0293087, 14.7147728]]]]}}, {"type": "Feature", "id": "Fairview", "properties": {"barangay": "Fairview", "osm_name": "Fairview", "osm_id": 1783168}, "geometry": {"type": "MultiPolygon", "coordinates": [[[[121.073208, 14.7112386], [121.0734186, 14.7110106], [121.0735593, 14.7108544], [121.0734484, 14.71062], [121.0740742, 14.7106199], [121.0749683, 14.7105059], [121.0752532, 14.7104696], [121.075637, 14.7103663], [121.0757349, 14.7103883], [121.0760647, 14.7104625], [121.0772891, 14.7103657], [121.0790614, 14.7102256], [121.0795297, 14.7101904], [121.073208, 14.7112386]]], [[[121.0795297, 14.7101904], [121.0807881, 14.7100774], [121.081024, 14.7100705], [121.0815912, 14.7100139], [121.083089, 14.709909], [121.0795297, 14.7101904]]], [[[121.083089, 14.709909], [121.0827319, 14.7086933], [121.082621, 14.7083025], [121.082477, 14.7078641], [121.0823004, 14.7073802], [121.0821198, 14.7069657], [121.0818147, 14.7059143], [121.0815905, 14.7051927], [121.0815014, 14.7048893], [121.0813675, 14.704569], [121.0812002, 14.7041845], [121.080837, 14.7041825], [121.0795816, 14.704164], [121.0777782, 14.7041727], [121.0771962, 14.7041883], [121.0770465, 14.7040385], [121.0767196, 14.7038143], [121.0764196, 14.7036652], [121.0762954, 14.7036316], [121.0756248, 14.7034504], [121.0753926, 14.703369], [121.0751716, 14.7032915], [121.0749029, 14.7031676], [121.0746963, 14.7030288], [121.0741843, 14.7030437], [121.0742259, 14.7028376], [121.0742487, 14.7027871], [121.0740021, 14.7025363], [121.0737081, 14.702249], [121.0737537, 14.7021699], [121.0734353, 14.7017435], [121.0728592, 14.7006421], [121.0728041, 14.7002749], [121.0727533, 14.6999815], [121.0727274, 14.699677], [121.0726916, 14.6994613], [121.0723715, 14.6986078], [121.07174, 14.696937], [121.0714422, 14.6962263], [121.0709099, 14.6948733], [121.0701216, 14.6936084], [121.0699625, 14.6934091], [121.0696031, 14.6928864], [121.083089, 14.709909]]], [[[121.0602932, 14.6933747], [121.0658914, 14.693069], [121.0696031, 14.6928864], [121.0602932, 14.6933747]]], [[[121.0602932, 14.6933747], [121.0603103, 14.6951758], [121.0598143, 14.6951482], [121.0579874, 14.6951383], [121.0580009, 14.6994128], [121.0580023, 14.6995925], [121.0580084, 14.7020114], [121.0579759, 14.7041217], [121.0585253, 14.7041134], [121.0585033, 14.7058744], [121.0602932, 14.6933747]]], [[[121.0622727, 14.704265], [121.0619825, 14.7043094], [121.0616029, 14.7044048], [121.061436, 14.7044048], [121.0611005, 14.7044771], [121.0609487, 14.7045351], [121.0607352, 14.7047138], [121.0603974, 14.7048694], [121.0599745, 14.7050373], [121.0595459, 14.7052236], [121.0590624, 14.7054828], [121.0587356, 14.7057516], [121.0585033, 14.7058744], [121.0622727, 14.704265]]], [[[121.0665574, 14.7072704], [121.0665827, 14.7070078], [121.066617, 14.7067505], [121.0667389, 14.7062776], [121.0666175, 14.7060544], [121.0665027, 14.7059655], [121.0660478, 14.705681], [121.0657363, 14.7056076], [121.0651111, 14.7053093], [121.0650272, 14.7053164], [121.0649526, 14.7053228], [121.0648967, 14.7053723], [121.0648194, 14.7054903], [121.0646521, 14.705605], [121.0644809, 14.7056478], [121.0642816, 14.7056465], [121.0637235, 14.705495], [121.0634806, 14.7053127], [121.0632237, 14.7050597], [121.0630158, 14.7049045], [121.0628457, 14.7047829], [121.0626221, 14.7045737], [121.062518, 14.7044301], [121.0624411, 14.7043468], [121.0622727, 14.704265], [121.0665574, 14.7072704]]], [[[121.0665033, 14.7095403], [121.0664861, 14.7091677], [121.0664787, 14.7088377], [121.0664354, 14.7081586], [121.0665489, 14.7074613], [121.0665574, 14.7072704], [121.0665033, 14.7095403]]], [[[121.0672146, 14.7099832], [121.0671073, 14.7099782], [121.0669041, 14.7099017], [121.0667096, 14.7097969], [121.0665033, 14.7095403], [121.0672146, 14.7099832]]], [[[121.073208, 14.7112386], [121.0731627, 14.7113041], [121.0729216, 14.71149], [121.0726014, 14.7115186], [121.0716829, 14.7116002], [121.0711145, 14.7113862], [121.0710978, 14.7113692], [121.070921, 14.7111892], [121.0706081, 14.7112494], [121.0703278, 14.7111706], [121.0700908, 14.7110956], [121.0698944, 14.7110334], [121.0695373, 14.7109068], [121.0690799, 14.7108114], [121.0688227, 14.7107159], [121.0686627, 14.7106016], [121.0685242, 14.7104396], [121.0682976, 14.7102285], [121.0681122, 14.7101414], [121.0678827, 14.7100603], [121.0677984, 14.7100337], [121.0677377, 14.7100274], [121.0676591, 14.7100334], [121.0674785, 14.7100114], [121.0672146, 14.7099832], [121.073208, 14.7112386]]]]}}, {"type": "Feature", "id": "Greater Lagro", "properties": {"barangay": "Greater Lagro", "osm_name": "Greater Lagro", "osm_id": 1783169}, "geometry": {"type": "MultiPolygon", "coordinates": [[[[121.073208, 14.7112386], [121.0731627, 14.7113041], [121.0729216, 14.71149], [121.0726014, 14.7115186], [121.0716829, 14.7116002], [121.0711145, 14.7113862], [121.0710978, 14.7113692], [121.070921, 14.7111892], [121.0706081, 14.7112494], [121.0703278, 14.7111706], [121.0700908, 14.7110956], [121.0698944, 14.7110334], [121.0695373, 14.7109068], [121.0690799, 14.7108114], [121.0688227, 14.7107159], [121.0686627, 14.7106016], [121.0685242, 14.7104396], [121.0682976, 14.7102285], [121.0681122, 14.7101414], [121.0678827, 14.7100603], [121.0677984, 14.7100337], [121.0677377, 14.7100274], [121.0676591, 14.7100334], [121.0674785, 14.7100114], [121.0672146, 14.7099832], [121.073208, 14.7112386]]], [[[121.0635085, 14.7239733], [121.0636229, 14.7239876], [121.0642344, 14.724073], [121.0643732, 14.7238496], [121.0640809, 14.7237442], [121.0639493, 14.7235254], [121.0638377, 14.7231574], [121.0636445, 14.7231542], [121.063419, 14.7229747], [121.0633157, 14.7228243], [121.0629568, 14.7227578], [121.0628195, 14.7225662], [121.0627565, 14.722478], [121.0627582, 14.7218491], [121.0650591, 14.7218272], [121.0650606, 14.7166355], [121.0660413, 14.7166307], [121.0660549, 14.7142061], [121.0660553, 14.7141368], [121.0670991, 14.7141537], [121.0670919, 14.7102711], [121.0672146, 14.7099832], [121.0635085, 14.7239733]]], [[[121.0635085, 14.7239733], [121.0635252, 14.7237246], [121.0635142, 14.7236622], [121.0634834, 14.7236272], [121.0634042, 14.7235908], [121.0632544, 14.7235236], [121.0629487, 14.7231837], [121.0626611, 14.7227776], [121.0619661, 14.7227633], [121.0612796, 14.7227723], [121.0635085, 14.7239733]]], [[[121.0612796, 14.7227723], [121.0611161, 14.7227735], [121.0610782, 14.7227818], [121.0612796, 14.7227723]]], [[[121.0610782, 14.7227818], [121.0610073, 14.7227134], [121.0608879, 14.7225159], [121.0608836, 14.722067], [121.0608613, 14.721955], [121.0608655, 14.7218528], [121.060851, 14.721531], [121.0608629, 14.7211581], [121.0607641, 14.7209281], [121.0606467, 14.7207613], [121.0606215, 14.720739], [121.0598744, 14.7200529], [121.0593486, 14.71957], [121.0580529, 14.7183801], [121.057801, 14.7181488], [121.0577575, 14.7181088], [121.0571475, 14.7175486], [121.0571413, 14.7175421], [121.0570603, 14.7174573], [121.0570359, 14.7172912], [121.0570415, 14.717162], [121.0570461, 14.7170574], [121.057096, 14.7169924], [121.0578118, 14.7160989], [121.0578703, 14.715965], [121.0578685, 14.7157471], [121.0572055, 14.7151887], [121.0560148, 14.7142577], [121.0554973, 14.7138531], [121.054851, 14.7133478], [121.0542975, 14.712915], [121.0536729, 14.7124266], [121.0610782, 14.7227818]]], [[[121.0487081, 14.7181592], [121.0486784, 14.7153698], [121.0506302, 14.7153444], [121.0509319, 14.7153381], [121.052008, 14.7153566], [121.0521207, 14.7149227], [121.0521128, 14.7137903], [121.0519004, 14.7134727], [121.0516372, 14.7132095], [121.05334, 14.713225], [121.0533739, 14.7127719], [121.0534003, 14.7124593], [121.0533787, 14.7121965], [121.0487081, 14.7181592]]], [[[121.0579474, 14.7268113], [121.0577783, 14.7266572], [121.0567265, 14.7256715], [121.0521298, 14.7213635], [121.0487081, 14.7181592], [121.0579474, 14.7268113]]], [[[121.05547, 14.7316034], [121.0554679, 14.7313251], [121.0554658, 14.7308989], [121.0554631, 14.7305869], [121.0554796, 14.7304393], [121.0555001, 14.7303789], [121.0555201, 14.73032], [121.0556111, 14.730137], [121.0556731, 14.7300406], [121.0557489, 14.7299352], [121.0558565, 14.7297885], [121.0560071, 14.7295817], [121.05605, 14.7295234], [121.0561052, 14.7294445], [121.0561398, 14.7293969], [121.0562672, 14.7292215], [121.0563999, 14.7290172], [121.0564978, 14.728875], [121.0565574, 14.7287884], [121.0566013, 14.7287243], [121.056614, 14.7287058], [121.0569939, 14.7281537], [121.0570639, 14.7280512], [121.0570869, 14.7280175], [121.0571092, 14.7279855], [121.0571414, 14.7279393], [121.0571723, 14.7278924], [121.0572199, 14.7278201], [121.057285, 14.7277292], [121.0573734, 14.7275991], [121.0574485, 14.7274944], [121.0575359, 14.727369], [121.0575655, 14.7273265], [121.0577519, 14.7270642], [121.0578735, 14.7268932], [121.0579474, 14.7268113], [121.05547, 14.7316034]]], [[[121.0555204, 14.7324246], [121.0555055, 14.7323102], [121.0555004, 14.7322733], [121.0554984, 14.7322168], [121.05548, 14.7320603], [121.0554709, 14.7316919], [121.0554702, 14.7316407], [121.05547, 14.7316034], [121.0555204, 14.7324246]]], [[[121.0555794, 14.7329718], [121.0555729, 14.7328714], [121.0555496, 14.732628], [121.0555319, 14.7324911], [121.0555204, 14.7324246], [121.0555794, 14.7329718]]], [[[121.0556424, 14.7342277], [121.0556634, 14.7341669], [121.0556862, 14.7340858], [121.0556983, 14.7340021], [121.0556982, 14.7338919], [121.0556463, 14.7334183], [121.055628, 14.7332999], [121.0555973, 14.7331215], [121.0555923, 14.7330822], [121.055582, 14.7329983], [121.0555802, 14.7329803], [121.0555794, 14.7329718], [121.0556424, 14.7342277]]], [[[121.0563575, 14.7347812], [121.0560402, 14.7346857], [121.0559571, 14.7346584], [121.055886, 14.7346299], [121.0558444, 14.7346105], [121.0557962, 14.7345806], [121.0557546, 14.7345469], [121.0557291, 14.7345184], [121.0557009, 14.7344795], [121.0556795, 14.7344393], [121.0556634, 14.7343939], [121.0556513, 14.7343459], [121.0556433, 14.7342953], [121.0556424, 14.7342277], [121.0563575, 14.7347812]]], [[[121.0577364, 14.7351997], [121.0570665, 14.7349964], [121.0563575, 14.7347812], [121.0577364, 14.7351997]]], [[[121.0581078, 14.735264], [121.0579802, 14.7352486], [121.0578493, 14.7352272], [121.0577364, 14.7351997], [121.0581078, 14.735264]]], [[[121.0590524, 14.7352905], [121.0589471, 14.7352894], [121.0589181, 14.7352888], [121.0582403, 14.7352692], [121.0581692, 14.7352674], [121.0581078, 14.735264], [121.0590524, 14.7352905]]], [[[121.0610647, 14.7353288], [121.0609238, 14.7353262], [121.0606782, 14.7353177], [121.0606016, 14.7353151], [121.0605578, 14.7353142], [121.0600196, 14.7353035], [121.0597023, 14.7353003], [121.0594422, 14.7352976], [121.0590947, 14.735291], [121.0590524, 14.7352905], [121.0610647, 14.7353288]]], [[[121.0612074, 14.7353341], [121.0615368, 14.7353497], [121.0616039, 14.7353518], [121.0618423, 14.7353579], [121.0622116, 14.7353657], [121.0612074, 14.7353341]]], [[[121.0622116, 14.7353657], [121.0626086, 14.7353709], [121.0628878, 14.7353745], [121.0633473, 14.7353806], [121.0638981, 14.7353878], [121.0640271, 14.7353894], [121.0642443, 14.7353923], [121.0644978, 14.7353956], [121.0645949, 14.7353969], [121.0646591, 14.7353977], [121.0647105, 14.7353984], [121.0651367, 14.735404], [121.0653665, 14.735407], [121.0655856, 14.7354098], [121.0658484, 14.7354133], [121.0660583, 14.735416], [121.0672184, 14.7354312], [121.0673472, 14.7354329], [121.0674415, 14.7354341], [121.0622116, 14.7353657]]], [[[121.0674415, 14.7354341], [121.0675068, 14.7354356], [121.0679889, 14.7354455], [121.0680338, 14.7354464], [121.0680932, 14.7354476], [121.0681338, 14.7354484], [121.0681518, 14.7354488], [121.0683739, 14.7354533], [121.0685755, 14.7354574], [121.0692596, 14.7354751], [121.0693659, 14.7355014], [121.0694447, 14.7355408], [121.0695511, 14.735626], [121.0697017, 14.7357664], [121.069853, 14.7359074], [121.0704408, 14.7364553], [121.0704895, 14.7365007], [121.0674415, 14.7354341]]], [[[121.0704895, 14.7365007], [121.0709249, 14.7365187], [121.071172, 14.7361893], [121.0714371, 14.7356027], [121.0714814, 14.7354454], [121.0713734, 14.7352295], [121.0712235, 14.7349536], [121.0712295, 14.7347076], [121.0713494, 14.7343058], [121.0713494, 14.7338319], [121.0712354, 14.733376], [121.0710626, 14.7324677], [121.0710795, 14.7322364], [121.0712503, 14.7317895], [121.0713666, 14.7313409], [121.0713824, 14.7312737], [121.0714754, 14.7308628], [121.0714436, 14.7282394], [121.0716309, 14.7275044], [121.0715985, 14.727149], [121.0711327, 14.7263262], [121.0706831, 14.7255466], [121.0705819, 14.7253102], [121.0702836, 14.7228385], [121.0707614, 14.7224372], [121.0711833, 14.7221453], [121.0714609, 14.7221699], [121.0718194, 14.7219142], [121.0715221, 14.7200953], [121.0710248, 14.719705], [121.0706355, 14.7193917], [121.070953, 14.7180634], [121.0720713, 14.7167301], [121.07278, 14.7162841], [121.0729871, 14.7158413], [121.0729828, 14.7151143], [121.0729813, 14.7149079], [121.0729824, 14.7147071], [121.0736475, 14.713873], [121.0744436, 14.7128552], [121.0746362, 14.7126266], [121.0747842, 14.7124954], [121.0753456, 14.7120609], [121.0758287, 14.7118108], [121.07591, 14.7117831], [121.0760376, 14.7117509], [121.0764299, 14.7116623], [121.0770778, 14.7115844], [121.0774316, 14.7116683], [121.0777975, 14.7118663], [121.0779475, 14.7115844], [121.0785413, 14.7118363], [121.0792355, 14.7121763], [121.0794234, 14.7122061], [121.0796391, 14.7121852], [121.0797007, 14.7121018], [121.0797593, 14.7119289], [121.0798215, 14.7112604], [121.0797906, 14.7111619], [121.0797813, 14.7110792], [121.0797419, 14.7109784], [121.0795297, 14.7101904], [121.0704895, 14.7365007]]], [[[121.073208, 14.7112386], [121.0734186, 14.7110106], [121.0735593, 14.7108544], [121.0734484, 14.71062], [121.0740742, 14.7106199], [121.0749683, 14.7105059], [121.0752532, 14.7104696], [121.075637, 14.7103663], [121.0757349, 14.7103883], [121.0760647, 14.7104625], [121.0772891, 14.7103657], [121.0790614, 14.7102256], [121.0795297, 14.7101904], [121.073208, 14.7112386]]]]}}, {"type": "Feature", "id": "Gulod", "properties": {"barangay": "Gulod", "osm_name": "Gulod", "osm_id": 270990}, "geometry": {"type": "MultiPolygon", "coordinates": [[[[121.0353147, 14.714787], [121.0351244, 14.7147602], [121.0350697, 14.7147391], [121.0349662, 14.7146978], [121.0348455, 14.7145692], [121.0344099, 14.7140667], [121.0342536, 14.7138862], [121.0341839, 14.7136913], [121.0341969, 14.7135132], [121.0342312, 14.7133827], [121.0342965, 14.7132461], [121.0344816, 14.7130565], [121.0345607, 14.7129008], [121.0345812, 14.7127621], [121.0345279, 14.712633], [121.0341479, 14.7122626], [121.0339345, 14.712102], [121.0335527, 14.7118143], [121.0334848, 14.711682], [121.0334957, 14.7115454], [121.0335308, 14.7114846], [121.0335862, 14.7114333], [121.0337882, 14.7112641], [121.0339523, 14.7111092], [121.0340751, 14.7109148], [121.0341028, 14.7108099], [121.0340604, 14.7106753], [121.0339774, 14.7105621], [121.0338543, 14.7105114], [121.0336751, 14.7104859], [121.0335323, 14.710492], [121.0353147, 14.714787]]], [[[121.0335323, 14.710492], [121.033562, 14.7101886], [121.0338342, 14.709774], [121.0339713, 14.7095436], [121.0345597, 14.7094757], [121.0350814, 14.7094277], [121.0362553, 14.7093446], [121.0363582, 14.7092669], [121.0364442, 14.709162], [121.0366244, 14.7089794], [121.036688, 14.7089056], [121.03699, 14.7091458], [121.0372903, 14.7091637], [121.0375888, 14.709336], [121.0382147, 14.7094565], [121.0384845, 14.709263], [121.03848, 14.7091378], [121.0384375, 14.7090308], [121.0387608, 14.708583], [121.0387662, 14.7084187], [121.0389081, 14.7083563], [121.0396347, 14.7080226], [121.0400809, 14.7080861], [121.0401844, 14.7080705], [121.0415248, 14.7075016], [121.0415217, 14.7066561], [121.0418078, 14.7058151], [121.0419812, 14.7052453], [121.0440479, 14.7052824], [121.0454888, 14.7052707], [121.0455003, 14.704594], [121.0335323, 14.710492]]], [[[121.0455003, 14.704594], [121.0468975, 14.7050443], [121.0474573, 14.7053168], [121.0472436, 14.7061441], [121.0472437, 14.7061633], [121.0471759, 14.7063696], [121.047172, 14.7070541], [121.0468812, 14.7074933], [121.0468267, 14.7079836], [121.0467387, 14.7084147], [121.0466027, 14.7087975], [121.0465679, 14.7088773], [121.0455003, 14.704594]]], [[[121.0465679, 14.7088773], [121.0465237, 14.708988], [121.0465472, 14.7090729], [121.0466418, 14.7091216], [121.0467319, 14.7091885], [121.0467944, 14.7093433], [121.0467645, 14.709431], [121.0466762, 14.7095276], [121.0464922, 14.709637], [121.0459819, 14.7097493], [121.0459727, 14.7098169], [121.0460219, 14.7098539], [121.0460159, 14.7099082], [121.0460252, 14.7099786], [121.0465679, 14.7088773]]], [[[121.0460252, 14.7100798], [121.045984, 14.7102054], [121.0460574, 14.7104115], [121.046219, 14.7105981], [121.046361, 14.7107014], [121.0467486, 14.7109051], [121.0469001, 14.7110597], [121.0470558, 14.7112651], [121.0470603, 14.7113701], [121.0468657, 14.7118121], [121.046788, 14.7119105], [121.04668, 14.7120473], [121.0463628, 14.7122458], [121.0461321, 14.7125295], [121.0459071, 14.712751], [121.04565, 14.7128774], [121.0452638, 14.7129189], [121.0449875, 14.7128681], [121.0446371, 14.7126643], [121.0444294, 14.7125356], [121.0441094, 14.7122657], [121.0436705, 14.7119655], [121.0434683, 14.7119706], [121.0434184, 14.7119718], [121.0432508, 14.7120946], [121.0431034, 14.7122324], [121.0429966, 14.7123962], [121.0429383, 14.7125755], [121.0429079, 14.7127791], [121.0429966, 14.7130402], [121.0431543, 14.7133731], [121.0432095, 14.7135], [121.0432103, 14.7136163], [121.0430658, 14.7139198], [121.0428879, 14.7146356], [121.0428612, 14.7148887], [121.0429258, 14.7150544], [121.0430697, 14.7151967], [121.0434241, 14.7154815], [121.0436062, 14.7155733], [121.0438905, 14.7157166], [121.0442338, 14.7158245], [121.0443492, 14.7159932], [121.0443099, 14.7161024], [121.0441341, 14.7162898], [121.0440041, 14.7165224], [121.0439937, 14.7165682], [121.0438154, 14.7173538], [121.0437188, 14.717601], [121.0436498, 14.7178396], [121.0434931, 14.7184845], [121.0434293, 14.7185908], [121.0433855, 14.7186606], [121.0433491, 14.718696], [121.0432445, 14.7187068], [121.0430669, 14.7186606], [121.0427013, 14.7184907], [121.042527, 14.7184298], [121.0421883, 14.7183594], [121.0420877, 14.7183753], [121.0418588, 14.7185368], [121.0417516, 14.7185946], [121.0415498, 14.7187822], [121.0413025, 14.7189784], [121.0411167, 14.7190563], [121.0460252, 14.7100798]]], [[[121.0411167, 14.7190563], [121.0408894, 14.7190785], [121.0407506, 14.7190093], [121.0406372, 14.7189861], [121.0405101, 14.7189203], [121.0404284, 14.7189175], [121.0403616, 14.7188784], [121.0403045, 14.7188008], [121.040135, 14.7187242], [121.0399209, 14.7185726], [121.039868, 14.7185215], [121.0397626, 14.7184479], [121.0396968, 14.7183115], [121.0395708, 14.7182147], [121.0393777, 14.717933], [121.0392124, 14.7177558], [121.0390731, 14.7175589], [121.0389675, 14.7174637], [121.0388661, 14.7173357], [121.0387807, 14.7172699], [121.0387193, 14.7171694], [121.0387049, 14.7170908], [121.0387195, 14.7170171], [121.0387226, 14.7169069], [121.0386913, 14.7167395], [121.0386512, 14.7166458], [121.0385619, 14.7165778], [121.0383951, 14.7164707], [121.0383187, 14.7164188], [121.0382705, 14.716373], [121.0382038, 14.7163255], [121.038151, 14.716307], [121.0380903, 14.7162945], [121.0380235, 14.7162539], [121.0378973, 14.7161845], [121.0377857, 14.7161693], [121.0377681, 14.7161669], [121.0376676, 14.7161164], [121.0376224, 14.7161039], [121.0375734, 14.7160707], [121.0375542, 14.7160374], [121.0375009, 14.71597], [121.0374602, 14.7159425], [121.0374081, 14.7159189], [121.0373643, 14.7158932], [121.0373415, 14.7158715], [121.0373158, 14.7158254], [121.0372835, 14.7157238], [121.0372717, 14.71559], [121.0372856, 14.7154204], [121.0373107, 14.7153622], [121.0373042, 14.7152833], [121.0372565, 14.7152027], [121.0371769, 14.7150977], [121.036819, 14.7146963], [121.0367345, 14.714643], [121.0366535, 14.7146236], [121.0365422, 14.7146377], [121.0364635, 14.7146582], [121.0363913, 14.7146609], [121.0361651, 14.7146698], [121.0357875, 14.7147265], [121.0356557, 14.7147423], [121.0354226, 14.7147845], [121.0353147, 14.714787], [121.0411167, 14.7190563]]]]}}, {"type": "Feature", "id": "Kaligayahan", "properties": {"barangay": "Kaligayahan", "osm_name": "Kaligayahan", "osm_id": 1751065}, "geometry": {"type": "MultiPolygon", "coordinates": [[[[121.0385103, 14.740294], [121.0404931, 14.7421201], [121.0464397, 14.7422036], [121.0385103, 14.740294]]], [[[121.0397334, 14.7268438], [121.039594, 14.7269708], [121.0392642, 14.7269442], [121.0392783, 14.7271199], [121.0392635, 14.7274917], [121.0392253, 14.7276168], [121.039177, 14.7277309], [121.0389531, 14.7284975], [121.0387346, 14.7284522], [121.0385628, 14.7284417], [121.0387385, 14.7290053], [121.0388126, 14.7291038], [121.0389827, 14.7291367], [121.0390071, 14.7293253], [121.038925, 14.7298116], [121.0388874, 14.7298568], [121.0384023, 14.7303893], [121.0382884, 14.730555], [121.0372535, 14.7310267], [121.0383709, 14.7315364], [121.0391779, 14.7324043], [121.0389137, 14.7328398], [121.0388367, 14.7335077], [121.0380761, 14.7338206], [121.037854, 14.7340211], [121.0376321, 14.7340467], [121.0376692, 14.7342024], [121.0377287, 14.73424], [121.0379938, 14.7345354], [121.0383244, 14.7345512], [121.0381155, 14.7347706], [121.0385801, 14.7348807], [121.038535, 14.7358244], [121.0394341, 14.7358148], [121.0394351, 14.737755], [121.0394248, 14.739706], [121.039221, 14.7397119], [121.038909, 14.739963], [121.0385103, 14.740294], [121.0397334, 14.7268438]]], [[[121.0496433, 14.7267623], [121.0487185, 14.7267596], [121.0478683, 14.7268053], [121.0474437, 14.7267891], [121.0471929, 14.7267937], [121.0455247, 14.7267738], [121.0453019, 14.7267739], [121.045066, 14.7267583], [121.0448984, 14.7267414], [121.0447322, 14.7266319], [121.0445374, 14.7265742], [121.0442177, 14.7263085], [121.0441892, 14.726193], [121.0438677, 14.7258017], [121.0436042, 14.7256954], [121.043284, 14.7255904], [121.0429384, 14.7253844], [121.0429147, 14.7255778], [121.0427309, 14.7257257], [121.042735, 14.725989], [121.0428798, 14.7261226], [121.0428934, 14.726579], [121.0429927, 14.7266056], [121.0430803, 14.7270346], [121.0430183, 14.7272787], [121.0430183, 14.7276866], [121.0428507, 14.7277146], [121.0427781, 14.7279157], [121.0426719, 14.7279604], [121.041979, 14.7281057], [121.0417275, 14.7281504], [121.0416158, 14.7284019], [121.0413811, 14.7280834], [121.0413196, 14.7282119], [121.0410235, 14.7280834], [121.0409215, 14.7277631], [121.0408, 14.7273625], [121.0407911, 14.72714], [121.0407539, 14.7270099], [121.0404521, 14.7267953], [121.0403106, 14.7268847], [121.0398862, 14.7266965], [121.0397334, 14.7268438], [121.0496433, 14.7267623]]], [[[121.0531742, 14.742157], [121.0531742, 14.7362212], [121.0530546, 14.7334838], [121.0530322, 14.7312669], [121.0530278, 14.7308312], [121.0530435, 14.7292652], [121.0530455, 14.7290281], [121.0521687, 14.7290212], [121.0496732, 14.7290296], [121.0496433, 14.7267623], [121.0531742, 14.742157]]]]}}, {"type": "Feature", "id": "Nagkaisang Nayon", "properties": {"barangay": "Nagkaisang Nayon", "osm_name": "Nagkaisang Nayon", "osm_id": 1642934}, "geometry": {"type": "MultiPolygon", "coordinates": [[[[121.0224236, 14.7243718], [121.0257601, 14.7275181], [121.0273872, 14.7292097], [121.0280557, 14.7298826], [121.0224236, 14.7243718]]], [[[121.0161294, 14.708755], [121.0136441, 14.7159085], [121.0183546, 14.7204897], [121.0205352, 14.7225911], [121.0224236, 14.7243718], [121.0161294, 14.708755]]], [[[121.0262578, 14.7165558], [121.0262522, 14.7165584], [121.0258231, 14.7167559], [121.0253098, 14.7168501], [121.0251415, 14.7168735], [121.0250607, 14.7168291], [121.0249346, 14.716728], [121.0246889, 14.7164617], [121.0245484, 14.7163751], [121.0244626, 14.7163544], [121.0243501, 14.7163864], [121.0240012, 14.7165438], [121.0238292, 14.7165845], [121.0235981, 14.7166319], [121.0234165, 14.7165983], [121.0233199, 14.7164524], [121.0232288, 14.7163362], [121.0231121, 14.7162296], [121.0226633, 14.7159795], [121.0222306, 14.7157714], [121.0221755, 14.7157449], [121.0220137, 14.7156073], [121.0219202, 14.7154007], [121.0218662, 14.7151714], [121.0217992, 14.7147901], [121.0217817, 14.7144236], [121.0217616, 14.7140793], [121.0217375, 14.7138769], [121.0216409, 14.7134592], [121.0214748, 14.7129387], [121.0213943, 14.7127752], [121.0212844, 14.7126611], [121.0210365, 14.7125168], [121.0207591, 14.7123378], [121.0203095, 14.7120758], [121.0200982, 14.7120057], [121.019994, 14.712009], [121.0198659, 14.7120799], [121.0197519, 14.7121595], [121.0196051, 14.7122711], [121.0193949, 14.7123653], [121.0191632, 14.7123912], [121.0189148, 14.7123876], [121.0187083, 14.7123581], [121.0186492, 14.7123497], [121.0185027, 14.7122529], [121.0182083, 14.7120395], [121.0180436, 14.7118786], [121.0178509, 14.7115213], [121.0176605, 14.7111685], [121.0175941, 14.7108606], [121.0175281, 14.7105281], [121.0175394, 14.710322], [121.0176712, 14.7096067], [121.017741, 14.709215], [121.0178876, 14.7089756], [121.0182097, 14.7085714], [121.0185473, 14.7082091], [121.0186826, 14.7078134], [121.0188085, 14.7076136], [121.0188749, 14.7073264], [121.0188682, 14.7071598], [121.0189258, 14.7069833], [121.0188939, 14.7068484], [121.0188954, 14.7067631], [121.0188513, 14.7066736], [121.0188381, 14.7064636], [121.018795, 14.7063539], [121.0186705, 14.7061385], [121.0185632, 14.7059991], [121.0184054, 14.7057403], [121.0180179, 14.7053009], [121.0177571, 14.705007], [121.0176421, 14.7046522], [121.0176811, 14.7044495], [121.0177136, 14.7043496], [121.0177575, 14.7042541], [121.017801, 14.704162], [121.0178362, 14.7040907], [121.0178736, 14.7039819], [121.0179092, 14.7038465], [121.0179495, 14.7037269], [121.0179703, 14.703623], [121.017979, 14.703501], [121.0179631, 14.7033858], [121.0262578, 14.7165558]]], [[[121.0262578, 14.7165558], [121.0263334, 14.7166825], [121.0264495, 14.7169023], [121.026848, 14.7170654], [121.0267818, 14.7176099], [121.0268137, 14.7176284], [121.0272651, 14.7182878], [121.0274681, 14.7182784], [121.0274814, 14.7182027], [121.0277302, 14.7182557], [121.0279303, 14.7182935], [121.0280635, 14.7182715], [121.0281921, 14.7182099], [121.0283538, 14.7181334], [121.0284906, 14.718125], [121.0284984, 14.7182305], [121.0286957, 14.7182152], [121.0288427, 14.7182837], [121.0290244, 14.7181807], [121.0292492, 14.7179835], [121.0294287, 14.7176684], [121.0295253, 14.7174881], [121.0296751, 14.7174014], [121.0301302, 14.7171201], [121.0302129, 14.716972], [121.0302534, 14.7168393], [121.0302956, 14.7164841], [121.0303341, 14.7163781], [121.0301779, 14.7161044], [121.0300796, 14.7159522], [121.0300151, 14.7159167], [121.0299112, 14.7158015], [121.0296573, 14.7154233], [121.0296347, 14.7153637], [121.02953, 14.7151169], [121.0294548, 14.7149835], [121.0293087, 14.7147728], [121.0262578, 14.7165558]]], [[[121.0335323, 14.710492], [121.0331848, 14.7105806], [121.0328912, 14.7106831], [121.0325778, 14.7107582], [121.0323155, 14.710777], [121.032077, 14.7107634], [121.0316378, 14.7106994], [121.0312412, 14.7104529], [121.0311279, 14.7104447], [121.030941, 14.710524], [121.0309143, 14.7105568], [121.0308952, 14.7106455], [121.0308448, 14.7108677], [121.03083, 14.71103], [121.0308498, 14.7113243], [121.0308177, 14.7115253], [121.0304332, 14.7119779], [121.0302602, 14.7121841], [121.0302126, 14.7123197], [121.0301489, 14.7125032], [121.0301301, 14.7127069], [121.0301154, 14.7128937], [121.0300577, 14.7130836], [121.0298619, 14.7134619], [121.0294864, 14.7141586], [121.0293449, 14.7144433], [121.0293087, 14.7147728], [121.0335323, 14.710492]]], [[[121.0353147, 14.714787], [121.0351244, 14.7147602], [121.0350697, 14.7147391], [121.0349662, 14.7146978], [121.0348455, 14.7145692], [121.0344099, 14.7140667], [121.0342536, 14.7138862], [121.0341839, 14.7136913], [121.0341969, 14.7135132], [121.0342312, 14.7133827], [121.0342965, 14.7132461], [121.0344816, 14.7130565], [121.0345607, 14.7129008], [121.0345812, 14.7127621], [121.0345279, 14.712633], [121.0341479, 14.7122626], [121.0339345, 14.712102], [121.0335527, 14.7118143], [121.0334848, 14.711682], [121.0334957, 14.7115454], [121.0335308, 14.7114846], [121.0335862, 14.7114333], [121.0337882, 14.7112641], [121.0339523, 14.7111092], [121.0340751, 14.7109148], [121.0341028, 14.7108099], [121.0340604, 14.7106753], [121.0339774, 14.7105621], [121.0338543, 14.7105114], [121.0336751, 14.7104859], [121.0335323, 14.710492], [121.0353147, 14.714787]]], [[[121.0350012, 14.7152259], [121.0351376, 14.7151222], [121.0352467, 14.7149863], [121.0353048, 14.714857], [121.0353147, 14.714787], [121.0350012, 14.7152259]]], [[[121.035, 14.7152856], [121.0350002, 14.7152746], [121.0350012, 14.7152259], [121.035, 14.7152856]]], [[[121.0345891, 14.7164116], [121.0345932, 14.7163663], [121.034628, 14.7163339], [121.0346708, 14.716334], [121.0346996, 14.7163032], [121.0347572, 14.7162529], [121.0347885, 14.7162257], [121.0348139, 14.7161907], [121.0348377, 14.7160991], [121.0348514, 14.716034], [121.034895, 14.7159335], [121.0348876, 14.715914], [121.0348762, 14.7158585], [121.0350286, 14.7157411], [121.0350769, 14.7156321], [121.0350626, 14.715544], [121.0349975, 14.7154433], [121.035, 14.7152856], [121.0345891, 14.7164116]]], [[[121.0343414, 14.7183367], [121.0343866, 14.7182574], [121.0344001, 14.71822], [121.0344028, 14.7181587], [121.0344121, 14.7181022], [121.0344625, 14.7178169], [121.0344533, 14.7177141], [121.0344327, 14.7176112], [121.0344387, 14.7174045], [121.0344315, 14.7172683], [121.0344108, 14.7171911], [121.034374, 14.717047], [121.0344227, 14.71694], [121.0343963, 14.7167962], [121.0344166, 14.716728], [121.0344652, 14.7166749], [121.0345238, 14.7166238], [121.0345557, 14.7165898], [121.0345979, 14.7165266], [121.0343414, 14.7183367]]], [[[121.0343534, 14.7186132], [121.0343098, 14.7185434], [121.0342838, 14.7184828], [121.0342722, 14.7184527], [121.0342748, 14.7184457], [121.0343534, 14.7186132]]], [[[121.0350636, 14.7193779], [121.0349193, 14.7192076], [121.0348807, 14.7191105], [121.0347562, 14.7189673], [121.0346856, 14.7189229], [121.0346178, 14.7188803], [121.0345248, 14.7188133], [121.034472, 14.7187884], [121.034415, 14.7187691], [121.0343339, 14.7187247], [121.0343247, 14.7186668], [121.0350636, 14.7193779]]], [[[121.0353001, 14.7196901], [121.0353085, 14.7194946], [121.0352901, 14.7194016], [121.0351515, 14.7193306], [121.0350636, 14.7193779], [121.0353001, 14.7196901]]], [[[121.0342835, 14.7217555], [121.0343395, 14.7215945], [121.0344, 14.7214571], [121.0343385, 14.7213045], [121.0343027, 14.7212156], [121.0342915, 14.7211095], [121.0343072, 14.7210722], [121.0346687, 14.720917], [121.0347209, 14.7207417], [121.034778, 14.7206709], [121.0348388, 14.7204624], [121.0349027, 14.7202553], [121.0349174, 14.7202465], [121.0349483, 14.7201279], [121.0350011, 14.7200488], [121.0350439, 14.720011], [121.0351547, 14.7198303], [121.0352501, 14.7197383], [121.0353001, 14.7196901], [121.0342835, 14.7217555]]], [[[121.0338714, 14.7236791], [121.0337725, 14.7235727], [121.0337089, 14.7234956], [121.0337558, 14.7234488], [121.0337944, 14.7234008], [121.0340149, 14.7232191], [121.0341645, 14.7229002], [121.0342726, 14.7227024], [121.0343365, 14.7225441], [121.0342898, 14.72231], [121.0341764, 14.7219028], [121.0338714, 14.7236791]]], [[[121.0308457, 14.732682], [121.0309747, 14.7323659], [121.0307054, 14.7318569], [121.0305727, 14.731678], [121.0315264, 14.731661], [121.0321517, 14.7314315], [121.0320408, 14.731012], [121.0314789, 14.7307667], [121.0316926, 14.7306084], [121.0320171, 14.7303947], [121.0321358, 14.7301731], [121.0319854, 14.7298011], [121.0319221, 14.7294766], [121.031843, 14.7287485], [121.0315027, 14.7284002], [121.0307429, 14.7275929], [121.0308932, 14.7273476], [121.030917, 14.726564], [121.0305371, 14.7259071], [121.0305529, 14.7257488], [121.0311666, 14.7257024], [121.0313704, 14.7260136], [121.03278, 14.7251615], [121.0328827, 14.7251584], [121.0334697, 14.7251677], [121.0335915, 14.7251149], [121.0336986, 14.7250318], [121.0337791, 14.7247737], [121.0337986, 14.7242198], [121.0337475, 14.7240648], [121.0337262, 14.7238841], [121.0337991, 14.7237829], [121.0339548, 14.7238923], [121.0308457, 14.732682]]]]}}, {"type": "Feature", "id": "North Fairview", "properties": {"barangay": "North Fairview", "osm_name": "North Fairview", "osm_id": 1783170}, "geometry": {"type": "MultiPolygon", "coordinates": [[[[121.0635085, 14.7239733], [121.0635252, 14.7237246], [121.0635142, 14.7236622], [121.0634834, 14.7236272], [121.0634042, 14.7235908], [121.0632544, 14.7235236], [121.0629487, 14.7231837], [121.0626611, 14.7227776], [121.0619661, 14.7227633], [121.0612796, 14.7227723], [121.0635085, 14.7239733]]], [[[121.0612796, 14.7227723], [121.0611161, 14.7227735], [121.0610782, 14.7227818], [121.0612796, 14.7227723]]], [[[121.0610782, 14.7227818], [121.0610073, 14.7227134], [121.0608879, 14.7225159], [121.0608836, 14.722067], [121.0608613, 14.721955], [121.0608655, 14.7218528], [121.060851, 14.721531], [121.0608629, 14.7211581], [121.0607641, 14.7209281], [121.0606467, 14.7207613], [121.0606215, 14.720739], [121.0598744, 14.7200529], [121.0593486, 14.71957], [121.0580529, 14.7183801], [121.057801, 14.7181488], [121.0577575, 14.7181088], [121.0571475, 14.7175486], [121.0571413, 14.7175421], [121.0570603, 14.7174573], [121.0570359, 14.7172912], [121.0570415, 14.717162], [121.0570461, 14.7170574], [121.057096, 14.7169924], [121.0578118, 14.7160989], [121.0578703, 14.715965], [121.0578685, 14.7157471], [121.0572055, 14.7151887], [121.0560148, 14.7142577], [121.0554973, 14.7138531], [121.054851, 14.7133478], [121.0542975, 14.712915], [121.0536729, 14.7124266], [121.0610782, 14.7227818]]], [[[121.0533787, 14.7121965], [121.0533801, 14.7116309], [121.0533582, 14.7114735], [121.0534046, 14.7113203], [121.0533891, 14.7110888], [121.0535266, 14.7108964], [121.0533908, 14.7107325], [121.0533687, 14.709918], [121.0533575, 14.709866], [121.0533537, 14.7097724], [121.0533523, 14.7095], [121.0533434, 14.7094989], [121.0533405, 14.7093735], [121.0533278, 14.7087807], [121.0532718, 14.7087518], [121.0533787, 14.7121965]]], [[[121.0571029, 14.7054296], [121.0566337, 14.7058723], [121.0563795, 14.7061468], [121.0560971, 14.7065236], [121.0559899, 14.7066667], [121.0558208, 14.7069037], [121.0557445, 14.7070507], [121.0556805, 14.7071274], [121.0555469, 14.7072759], [121.055469, 14.7073983], [121.0554247, 14.7074988], [121.0554233, 14.7075871], [121.0554575, 14.7077537], [121.0554126, 14.7078776], [121.0553388, 14.707984], [121.055261, 14.70808], [121.0551989, 14.7081649], [121.0551175, 14.7082791], [121.0549757, 14.7084292], [121.0549039, 14.7084905], [121.0547948, 14.7085687], [121.0547105, 14.7086], [121.0545786, 14.7086114], [121.0542782, 14.708616], [121.054073, 14.7085961], [121.0537644, 14.7086014], [121.0536182, 14.7086144], [121.0534605, 14.7086639], [121.0533839, 14.7086937], [121.0532718, 14.7087518], [121.0571029, 14.7054296]]], [[[121.0585033, 14.7058744], [121.0583351, 14.7058902], [121.0582272, 14.7058352], [121.0581402, 14.7057333], [121.0578517, 14.705382], [121.0576783, 14.7053311], [121.0573628, 14.7053254], [121.0571029, 14.7054296], [121.0585033, 14.7058744]]], [[[121.0622727, 14.704265], [121.0619825, 14.7043094], [121.0616029, 14.7044048], [121.061436, 14.7044048], [121.0611005, 14.7044771], [121.0609487, 14.7045351], [121.0607352, 14.7047138], [121.0603974, 14.7048694], [121.0599745, 14.7050373], [121.0595459, 14.7052236], [121.0590624, 14.7054828], [121.0587356, 14.7057516], [121.0585033, 14.7058744], [121.0622727, 14.704265]]], [[[121.0665574, 14.7072704], [121.0665827, 14.7070078], [121.066617, 14.7067505], [121.0667389, 14.7062776], [121.0666175, 14.7060544], [121.0665027, 14.7059655], [121.0660478, 14.705681], [121.0657363, 14.7056076], [121.0651111, 14.7053093], [121.0650272, 14.7053164], [121.0649526, 14.7053228], [121.0648967, 14.7053723], [121.0648194, 14.7054903], [121.0646521, 14.705605], [121.0644809, 14.7056478], [121.0642816, 14.7056465], [121.0637235, 14.705495], [121.0634806, 14.7053127], [121.0632237, 14.7050597], [121.0630158, 14.7049045], [121.0628457, 14.7047829], [121.0626221, 14.7045737], [121.062518, 14.7044301], [121.0624411, 14.7043468], [121.0622727, 14.704265], [121.0665574, 14.7072704]]], [[[121.0665033, 14.7095403], [121.0664861, 14.7091677], [121.0664787, 14.7088377], [121.0664354, 14.7081586], [121.0665489, 14.7074613], [121.0665574, 14.7072704], [121.0665033, 14.7095403]]], [[[121.0672146, 14.7099832], [121.0671073, 14.7099782], [121.0669041, 14.7099017], [121.0667096, 14.7097969], [121.0665033, 14.7095403], [121.0672146, 14.7099832]]], [[[121.0635085, 14.7239733], [121.0636229, 14.7239876], [121.0642344, 14.724073], [121.0643732, 14.7238496], [121.0640809, 14.7237442], [121.0639493, 14.7235254], [121.0638377, 14.7231574], [121.0636445, 14.7231542], [121.063419, 14.7229747], [121.0633157, 14.7228243], [121.0629568, 14.7227578], [121.0628195, 14.7225662], [121.0627565, 14.722478], [121.0627582, 14.7218491], [121.0650591, 14.7218272], [121.0650606, 14.7166355], [121.0660413, 14.7166307], [121.0660549, 14.7142061], [121.0660553, 14.7141368], [121.0670991, 14.7141537], [121.0670919, 14.7102711], [121.0672146, 14.7099832], [121.0635085, 14.7239733]]]]}}, {"type": "Feature", "id": "Novaliches Proper", "properties": {"barangay": "Novaliches Proper", "osm_name": "Novaliches Proper", "osm_id": 399345}, "geometry": {"type": "MultiPolygon", "coordinates": [[[[121.0390348, 14.7262977], [121.0391757, 14.725797], [121.0394017, 14.7255823], [121.0396319, 14.7253637], [121.0396643, 14.7253089], [121.0397756, 14.7247834], [121.0399801, 14.7245093], [121.040032, 14.7240537], [121.0400958, 14.7238282], [121.0400511, 14.7235733], [121.0400871, 14.723358], [121.0400968, 14.7231187], [121.0401052, 14.7228387], [121.0403964, 14.722652], [121.040378, 14.7219648], [121.0390348, 14.7262977]]], [[[121.0404291, 14.7218028], [121.0404619, 14.721727], [121.0405099, 14.721606], [121.0405612, 14.7215226], [121.0405827, 14.7213999], [121.0405867, 14.7212444], [121.0404834, 14.7210849], [121.0404705, 14.7210346], [121.0405143, 14.7208644], [121.040659, 14.7205963], [121.0407576, 14.7203646], [121.0407818, 14.7202548], [121.0406792, 14.720116], [121.040668, 14.7200769], [121.0407671, 14.7198637], [121.0410552, 14.7195603], [121.0411506, 14.719245], [121.0411341, 14.7191284], [121.0411167, 14.7190563], [121.0404291, 14.7218028]]], [[[121.0411167, 14.7190563], [121.0408894, 14.7190785], [121.0407506, 14.7190093], [121.0406372, 14.7189861], [121.0405101, 14.7189203], [121.0404284, 14.7189175], [121.0403616, 14.7188784], [121.0403045, 14.7188008], [121.040135, 14.7187242], [121.0399209, 14.7185726], [121.039868, 14.7185215], [121.0397626, 14.7184479], [121.0396968, 14.7183115], [121.0395708, 14.7182147], [121.0393777, 14.717933], [121.0392124, 14.7177558], [121.0390731, 14.7175589], [121.0389675, 14.7174637], [121.0388661, 14.7173357], [121.0387807, 14.7172699], [121.0387193, 14.7171694], [121.0387049, 14.7170908], [121.0387195, 14.7170171], [121.0387226, 14.7169069], [121.0386913, 14.7167395], [121.0386512, 14.7166458], [121.0385619, 14.7165778], [121.0383951, 14.7164707], [121.0383187, 14.7164188], [121.0382705, 14.716373], [121.0382038, 14.7163255], [121.038151, 14.716307], [121.0380903, 14.7162945], [121.0380235, 14.7162539], [121.0378973, 14.7161845], [121.0377857, 14.7161693], [121.0377681, 14.7161669], [121.0376676, 14.7161164], [121.0376224, 14.7161039], [121.0375734, 14.7160707], [121.0375542, 14.7160374], [121.0375009, 14.71597], [121.0374602, 14.7159425], [121.0374081, 14.7159189], [121.0373643, 14.7158932], [121.0373415, 14.7158715], [121.0373158, 14.7158254], [121.0372835, 14.7157238], [121.0372717, 14.71559], [121.0372856, 14.7154204], [121.0373107, 14.7153622], [121.0373042, 14.7152833], [121.0372565, 14.7152027], [121.0371769, 14.7150977], [121.036819, 14.7146963], [121.0367345, 14.714643], [121.0366535, 14.7146236], [121.0365422, 14.7146377], [121.0364635, 14.7146582], [121.0363913, 14.7146609], [121.0361651, 14.7146698], [121.0357875, 14.7147265], [121.0356557, 14.7147423], [121.0354226, 14.7147845], [121.0353147, 14.714787], [121.0411167, 14.7190563]]], [[[121.0350012, 14.7152259], [121.0351376, 14.7151222], [121.0352467, 14.7149863], [121.0353048, 14.714857], [121.0353147, 14.714787], [121.0350012, 14.7152259]]], [[[121.035, 14.7152856], [121.0350002, 14.7152746], [121.0350012, 14.7152259], [121.035, 14.7152856]]], [[[121.0345891, 14.7164116], [121.0345932, 14.7163663], [121.034628, 14.7163339], [121.0346708, 14.716334], [121.0346996, 14.7163032], [121.0347572, 14.7162529], [121.0347885, 14.7162257], [121.0348139, 14.7161907], [121.0348377, 14.7160991], [121.0348514, 14.716034], [121.034895, 14.7159335], [121.0348876, 14.715914], [121.0348762, 14.7158585], [121.0350286, 14.7157411], [121.0350769, 14.7156321], [121.0350626, 14.715544], [121.0349975, 14.7154433], [121.035, 14.7152856], [121.0345891, 14.7164116]]], [[[121.0343414, 14.7183367], [121.0343866, 14.7182574], [121.0344001, 14.71822], [121.0344028, 14.7181587], [121.0344121, 14.7181022], [121.0344625, 14.7178169], [121.0344533, 14.7177141], [121.0344327, 14.7176112], [121.0344387, 14.7174045], [121.0344315, 14.7172683], [121.0344108, 14.7171911], [121.034374, 14.717047], [121.0344227, 14.71694], [121.0343963, 14.7167962], [121.0344166, 14.716728], [121.0344652, 14.7166749], [121.0345238, 14.7166238], [121.0345557, 14.7165898], [121.0345979, 14.7165266], [121.0343414, 14.7183367]]], [[[121.0343534, 14.7186132], [121.0343098, 14.7185434], [121.0342838, 14.7184828], [121.0342722, 14.7184527], [121.0342748, 14.7184457], [121.0343534, 14.7186132]]], [[[121.0350636, 14.7193779], [121.0349193, 14.7192076], [121.0348807, 14.7191105], [121.0347562, 14.7189673], [121.0346856, 14.7189229], [121.0346178, 14.7188803], [121.0345248, 14.7188133], [121.034472, 14.7187884], [121.034415, 14.7187691], [121.0343339, 14.7187247], [121.0343247, 14.7186668], [121.0350636, 14.7193779]]], [[[121.0353001, 14.7196901], [121.0353085, 14.7194946], [121.0352901, 14.7194016], [121.0351515, 14.7193306], [121.0350636, 14.7193779], [121.0353001, 14.7196901]]], [[[121.0342835, 14.7217555], [121.0343395, 14.7215945], [121.0344, 14.7214571], [121.0343385, 14.7213045], [121.0343027, 14.7212156], [121.0342915, 14.7211095], [121.0343072, 14.7210722], [121.0346687, 14.720917], [121.0347209, 14.7207417], [121.034778, 14.7206709], [121.0348388, 14.7204624], [121.0349027, 14.7202553], [121.0349174, 14.7202465], [121.0349483, 14.7201279], [121.0350011, 14.7200488], [121.0350439, 14.720011], [121.0351547, 14.7198303], [121.0352501, 14.7197383], [121.0353001, 14.7196901], [121.0342835, 14.7217555]]], [[[121.0338714, 14.7236791], [121.0337725, 14.7235727], [121.0337089, 14.7234956], [121.0337558, 14.7234488], [121.0337944, 14.7234008], [121.0340149, 14.7232191], [121.0341645, 14.7229002], [121.0342726, 14.7227024], [121.0343365, 14.7225441], [121.0342898, 14.72231], [121.0341764, 14.7219028], [121.0338714, 14.7236791]]], [[[121.0339548, 14.7238923], [121.0340238, 14.7239494], [121.0343209, 14.7241666], [121.0345247, 14.7245091], [121.0348466, 14.7244987], [121.0350397, 14.7244468], [121.0351899, 14.7243223], [121.0352766, 14.7241053], [121.0353129, 14.7240297], [121.0358589, 14.7240308], [121.0357821, 14.7252793], [121.0358157, 14.7253211], [121.0360202, 14.7256467], [121.0361597, 14.7258101], [121.0363294, 14.7260979], [121.0373104, 14.7261798], [121.0374644, 14.7259099], [121.0375542, 14.7257789], [121.0378052, 14.725845], [121.0380048, 14.7258975], [121.0382155, 14.7262017], [121.0386285, 14.7262665], [121.0389222, 14.7263639], [121.0390348, 14.7262977], [121.0339548, 14.7238923]]]]}}, {"type": "Feature", "id": "Pasong Putik Proper", "properties": {"barangay": "Pasong Putik Proper", "osm_name": "Pasong Putik Proper", "osm_id": 1783171}, "geometry": {"type": "MultiPolygon", "coordinates": [[[[121.0704895, 14.7365007], [121.0707547, 14.7367548], [121.0712468, 14.7372262], [121.0713217, 14.7372909], [121.0714109, 14.7373511], [121.0715696, 14.7374505], [121.0718203, 14.7375793], [121.0722215, 14.7377784], [121.0724312, 14.7378825], [121.0725068, 14.73792], [121.0726613, 14.7380128], [121.0728238, 14.7381202], [121.0729056, 14.738184], [121.0730917, 14.7383291], [121.0734989, 14.7386467], [121.073559, 14.738696], [121.0736548, 14.7387747], [121.0739465, 14.7390139], [121.0740395, 14.7390902], [121.0743309, 14.7393438], [121.0743776, 14.7393891], [121.0744704, 14.739479], [121.074611, 14.7396404], [121.0749143, 14.7400727], [121.0749905, 14.7401813], [121.0754957, 14.7408783], [121.075698, 14.7411806], [121.0758151, 14.7413556], [121.0759144, 14.7414841], [121.07602, 14.741584], [121.0761239, 14.7416563], [121.0762462, 14.7417322], [121.0764176, 14.7418026], [121.0765307, 14.7418341], [121.0767708, 14.7419009], [121.0770383, 14.7419754], [121.0704895, 14.7365007]]], [[[121.0674415, 14.7354341], [121.0675068, 14.7354356], [121.0679889, 14.7354455], [121.0680338, 14.7354464], [121.0680932, 14.7354476], [121.0681338, 14.7354484], [121.0681518, 14.7354488], [121.0683739, 14.7354533], [121.0685755, 14.7354574], [121.0692596, 14.7354751], [121.0693659, 14.7355014], [121.0694447, 14.7355408], [121.0695511, 14.735626], [121.0697017, 14.7357664], [121.069853, 14.7359074], [121.0704408, 14.7364553], [121.0704895, 14.7365007], [121.0674415, 14.7354341]]], [[[121.0622116, 14.7353657], [121.0626086, 14.7353709], [121.0628878, 14.7353745], [121.0633473, 14.7353806], [121.0638981, 14.7353878], [121.0640271, 14.7353894], [121.0642443, 14.7353923], [121.0644978, 14.7353956], [121.0645949, 14.7353969], [121.0646591, 14.7353977], [121.0647105, 14.7353984], [121.0651367, 14.735404], [121.0653665, 14.735407], [121.0655856, 14.7354098], [121.0658484, 14.7354133], [121.0660583, 14.735416], [121.0672184, 14.7354312], [121.0673472, 14.7354329], [121.0674415, 14.7354341], [121.0622116, 14.7353657]]], [[[121.0612074, 14.7353341], [121.0615368, 14.7353497], [121.0616039, 14.7353518], [121.0618423, 14.7353579], [121.0622116, 14.7353657], [121.0612074, 14.7353341]]], [[[121.0610647, 14.7353288], [121.0609238, 14.7353262], [121.0606782, 14.7353177], [121.0606016, 14.7353151], [121.0605578, 14.7353142], [121.0600196, 14.7353035], [121.0597023, 14.7353003], [121.0594422, 14.7352976], [121.0590947, 14.735291], [121.0590524, 14.7352905], [121.0610647, 14.7353288]]], [[[121.0590524, 14.7352905], [121.0589471, 14.7352894], [121.0589181, 14.7352888], [121.0582403, 14.7352692], [121.0581692, 14.7352674], [121.0581078, 14.735264], [121.0590524, 14.7352905]]], [[[121.0581078, 14.735264], [121.0579802, 14.7352486], [121.0578493, 14.7352272], [121.0577364, 14.7351997], [121.0581078, 14.735264]]], [[[121.0577364, 14.7351997], [121.0570665, 14.7349964], [121.0563575, 14.7347812], [121.0577364, 14.7351997]]], [[[121.0563575, 14.7347812], [121.0560402, 14.7346857], [121.0559571, 14.7346584], [121.055886, 14.7346299], [121.0558444, 14.7346105], [121.0557962, 14.7345806], [121.0557546, 14.7345469], [121.0557291, 14.7345184], [121.0557009, 14.7344795], [121.0556795, 14.7344393], [121.0556634, 14.7343939], [121.0556513, 14.7343459], [121.0556433, 14.7342953], [121.0556424, 14.7342277], [121.0563575, 14.7347812]]], [[[121.0556424, 14.7342277], [121.0556634, 14.7341669], [121.0556862, 14.7340858], [121.0556983, 14.7340021], [121.0556982, 14.7338919], [121.0556463, 14.7334183], [121.055628, 14.7332999], [121.0555973, 14.7331215], [121.0555923, 14.7330822], [121.055582, 14.7329983], [121.0555802, 14.7329803], [121.0555794, 14.7329718], [121.0556424, 14.7342277]]], [[[121.0555794, 14.7329718], [121.0555729, 14.7328714], [121.0555496, 14.732628], [121.0555319, 14.7324911], [121.0555204, 14.7324246], [121.0555794, 14.7329718]]], [[[121.0555204, 14.7324246], [121.0555055, 14.7323102], [121.0555004, 14.7322733], [121.0554984, 14.7322168], [121.05548, 14.7320603], [121.0554709, 14.7316919], [121.0554702, 14.7316407], [121.05547, 14.7316034], [121.0555204, 14.7324246]]], [[[121.05547, 14.7316034], [121.0554679, 14.7313251], [121.0554658, 14.7308989], [121.0554631, 14.7305869], [121.0554796, 14.7304393], [121.0555001, 14.7303789], [121.0555201, 14.73032], [121.0556111, 14.730137], [121.0556731, 14.7300406], [121.0557489, 14.7299352], [121.0558565, 14.7297885], [121.0560071, 14.7295817], [121.05605, 14.7295234], [121.0561052, 14.7294445], [121.0561398, 14.7293969], [121.0562672, 14.7292215], [121.0563999, 14.7290172], [121.0564978, 14.728875], [121.0565574, 14.7287884], [121.0566013, 14.7287243], [121.056614, 14.7287058], [121.0569939, 14.7281537], [121.0570639, 14.7280512], [121.0570869, 14.7280175], [121.0571092, 14.7279855], [121.0571414, 14.7279393], [121.0571723, 14.7278924], [121.0572199, 14.7278201], [121.057285, 14.7277292], [121.0573734, 14.7275991], [121.0574485, 14.7274944], [121.0575359, 14.727369], [121.0575655, 14.7273265], [121.0577519, 14.7270642], [121.0578735, 14.7268932], [121.0579474, 14.7268113], [121.05547, 14.7316034]]], [[[121.0579474, 14.7268113], [121.0577783, 14.7266572], [121.0567265, 14.7256715], [121.0521298, 14.7213635], [121.0487081, 14.7181592], [121.0579474, 14.7268113]]], [[[121.0496433, 14.7267623], [121.0499034, 14.7258944], [121.0502654, 14.7247504], [121.0504733, 14.7240163], [121.0507481, 14.7230576], [121.0513267, 14.722261], [121.0487152, 14.722219], [121.048693, 14.7211262], [121.0487126, 14.7207883], [121.0487113, 14.7184144], [121.0487081, 14.7181592], [121.0496433, 14.7267623]]], [[[121.0531742, 14.742157], [121.0531742, 14.7362212], [121.0530546, 14.7334838], [121.0530322, 14.7312669], [121.0530278, 14.7308312], [121.0530435, 14.7292652], [121.0530455, 14.7290281], [121.0521687, 14.7290212], [121.0496732, 14.7290296], [121.0496433, 14.7267623], [121.0531742, 14.742157]]], [[[121.0531742, 14.742157], [121.0570057, 14.7421825], [121.0587677, 14.7421837], [121.0531742, 14.742157]]], [[[121.0587677, 14.7421837], [121.0663291, 14.7421927], [121.075878, 14.7423099], [121.0769046, 14.7423243], [121.0770302, 14.7420002], [121.0587677, 14.7421837]]]]}}, {"type": "Feature", "id": "San Agustin", "properties": {"barangay": "San Agustin", "osm_name": "San Agustin", "osm_id": 1751066}, "geometry": {"type": "MultiPolygon", "coordinates": [[[[121.0308457, 14.732682], [121.0309747, 14.7323659], [121.0307054, 14.7318569], [121.0305727, 14.731678], [121.0315264, 14.731661], [121.0321517, 14.7314315], [121.0320408, 14.731012], [121.0314789, 14.7307667], [121.0316926, 14.7306084], [121.0320171, 14.7303947], [121.0321358, 14.7301731], [121.0319854, 14.7298011], [121.0319221, 14.7294766], [121.031843, 14.7287485], [121.0315027, 14.7284002], [121.0307429, 14.7275929], [121.0308932, 14.7273476], [121.030917, 14.726564], [121.0305371, 14.7259071], [121.0305529, 14.7257488], [121.0311666, 14.7257024], [121.0313704, 14.7260136], [121.03278, 14.7251615], [121.0328827, 14.7251584], [121.0334697, 14.7251677], [121.0335915, 14.7251149], [121.0336986, 14.7250318], [121.0337791, 14.7247737], [121.0337986, 14.7242198], [121.0337475, 14.7240648], [121.0337262, 14.7238841], [121.0337991, 14.7237829], [121.0339548, 14.7238923], [121.0308457, 14.732682]]], [[[121.0339548, 14.7238923], [121.0340238, 14.7239494], [121.0343209, 14.7241666], [121.0345247, 14.7245091], [121.0348466, 14.7244987], [121.0350397, 14.7244468], [121.0351899, 14.7243223], [121.0352766, 14.7241053], [121.0353129, 14.7240297], [121.0358589, 14.7240308], [121.0357821, 14.7252793], [121.0358157, 14.7253211], [121.0360202, 14.7256467], [121.0361597, 14.7258101], [121.0363294, 14.7260979], [121.0373104, 14.7261798], [121.0374644, 14.7259099], [121.0375542, 14.7257789], [121.0378052, 14.725845], [121.0380048, 14.7258975], [121.0382155, 14.7262017], [121.0386285, 14.7262665], [121.0389222, 14.7263639], [121.0390348, 14.7262977], [121.0339548, 14.7238923]]], [[[121.0397334, 14.7268438], [121.0394521, 14.7265209], [121.0390348, 14.7262977], [121.0397334, 14.7268438]]], [[[121.0397334, 14.7268438], [121.039594, 14.7269708], [121.0392642, 14.7269442], [121.0392783, 14.7271199], [121.0392635, 14.7274917], [121.0392253, 14.7276168], [121.039177, 14.7277309], [121.0389531, 14.7284975], [121.0387346, 14.7284522], [121.0385628, 14.7284417], [121.0387385, 14.7290053], [121.0388126, 14.7291038], [121.0389827, 14.7291367], [121.0390071, 14.7293253], [121.038925, 14.7298116], [121.0388874, 14.7298568], [121.0384023, 14.7303893], [121.0382884, 14.730555], [121.0372535, 14.7310267], [121.0383709, 14.7315364], [121.0391779, 14.7324043], [121.0389137, 14.7328398], [121.0388367, 14.7335077], [121.0380761, 14.7338206], [121.037854, 14.7340211], [121.0376321, 14.7340467], [121.0376692, 14.7342024], [121.0377287, 14.73424], [121.0379938, 14.7345354], [121.0383244, 14.7345512], [121.0381155, 14.7347706], [121.0385801, 14.7348807], [121.038535, 14.7358244], [121.0394341, 14.7358148], [121.0394351, 14.737755], [121.0394248, 14.739706], [121.039221, 14.7397119], [121.038909, 14.739963], [121.0385103, 14.740294], [121.0397334, 14.7268438]]]]}}, {"type": "Feature", "id": "San Bartolome", "properties": {"barangay": "San Bartolome", "osm_name": "San Bartolome", "osm_id": 271002}, "geometry": {"type": "MultiPolygon", "coordinates": [[[[121.0198579, 14.7036248], [121.0200902, 14.7036547], [121.0205025, 14.7037499], [121.020747, 14.7038084], [121.0210019, 14.7038702], [121.0213328, 14.7039074], [121.0221108, 14.7038071], [121.0222216, 14.7036709], [121.0224269, 14.7030731], [121.0226614, 14.7024115], [121.0235882, 14.7023361], [121.0244882, 14.7022582], [121.0250886, 14.7022745], [121.0260183, 14.702268], [121.0260003, 14.7021657], [121.0263227, 14.7017582], [121.026434, 14.701849], [121.0265272, 14.7017354], [121.026972, 14.7011391], [121.0270976, 14.7006934], [121.0275992, 14.7005645], [121.0276272, 14.7003574], [121.0277396, 14.7002343], [121.0277865, 14.7002296], [121.0278093, 14.7002729], [121.0282816, 14.7002994], [121.0283223, 14.700203], [121.0282925, 14.7000479], [121.0288833, 14.6991261], [121.0292419, 14.6991672], [121.0294994, 14.6992585], [121.0305294, 14.6990012], [121.0308073, 14.6990593], [121.0307925, 14.6993818], [121.0313062, 14.6993467], [121.031742, 14.6993117], [121.0321595, 14.6994207], [121.0323774, 14.6992339], [121.0325253, 14.6992806], [121.0325111, 14.6995945], [121.0325398, 14.699613], [121.0327372, 14.6997469], [121.0328767, 14.6998208], [121.032988, 14.6998506], [121.0331061, 14.6998306], [121.0333293, 14.6997813], [121.0336237, 14.6998247], [121.0336968, 14.6998694], [121.033853, 14.6998643], [121.0339308, 14.6998325], [121.0344328, 14.69978], [121.0345356, 14.6996659], [121.0348171, 14.6998662], [121.0354332, 14.6995803], [121.0355857, 14.6994939], [121.0357553, 14.6991521], [121.0365931, 14.6993031], [121.0370751, 14.699396], [121.0373931, 14.6994582], [121.0379717, 14.6995824], [121.0387131, 14.6997286], [121.0393129, 14.6995139], [121.0397754, 14.6993584], [121.0398597, 14.6996087], [121.0399299, 14.6995906], [121.0407785, 14.6999041], [121.0407691, 14.6998886], [121.0409944, 14.6997939], [121.0410108, 14.6998224], [121.0411308, 14.6997855], [121.0412733, 14.6997679], [121.0413825, 14.6997748], [121.0414314, 14.6997848], [121.0415434, 14.6994038], [121.0415627, 14.6993029], [121.0416468, 14.699179], [121.0416877, 14.6991852], [121.0417394, 14.6991287], [121.0418215, 14.6990399], [121.0418792, 14.6989406], [121.0419529, 14.6988521], [121.0421053, 14.6986468], [121.0422597, 14.6986306], [121.0422812, 14.6986556], [121.0424227, 14.6986614], [121.0424255, 14.6986673], [121.0424637, 14.6986663], [121.0424656, 14.6986572], [121.0426982, 14.6986643], [121.0427153, 14.6986741], [121.0427824, 14.6986724], [121.0427837, 14.6986497], [121.0431167, 14.6986514], [121.0431515, 14.6986611], [121.0433011, 14.698652], [121.0433514, 14.6986313], [121.0436138, 14.6986107], [121.0441829, 14.6991949], [121.0198579, 14.7036248]]], [[[121.047897, 14.7023954], [121.0477384, 14.7024721], [121.0473664, 14.7023599], [121.0473405, 14.7021201], [121.0473177, 14.7021156], [121.047323, 14.7018754], [121.0473914, 14.7017527], [121.0474518, 14.7016682], [121.0474598, 14.7016375], [121.0480431, 14.7009135], [121.0481512, 14.700509], [121.0482001, 14.700327], [121.0482145, 14.7003011], [121.0482555, 14.7001496], [121.0481951, 14.7000245], [121.04784, 14.6997034], [121.0478716, 14.6996619], [121.0477819, 14.699577], [121.0473673, 14.6998442], [121.0470488, 14.7000459], [121.047023, 14.7000105], [121.0469247, 14.7000744], [121.046796, 14.7001571], [121.0467675, 14.7001516], [121.0466552, 14.7002382], [121.0463122, 14.7004619], [121.0461093, 14.7005706], [121.044619, 14.6997946], [121.0446816, 14.6997015], [121.0441051, 14.6995388], [121.0441829, 14.6991949], [121.047897, 14.7023954]]], [[[121.047897, 14.7023954], [121.0475163, 14.7032275], [121.0468517, 14.7033249], [121.0467778, 14.7040567], [121.0455003, 14.704594], [121.047897, 14.7023954]]], [[[121.0335323, 14.710492], [121.033562, 14.7101886], [121.0338342, 14.709774], [121.0339713, 14.7095436], [121.0345597, 14.7094757], [121.0350814, 14.7094277], [121.0362553, 14.7093446], [121.0363582, 14.7092669], [121.0364442, 14.709162], [121.0366244, 14.7089794], [121.036688, 14.7089056], [121.03699, 14.7091458], [121.0372903, 14.7091637], [121.0375888, 14.709336], [121.0382147, 14.7094565], [121.0384845, 14.709263], [121.03848, 14.7091378], [121.0384375, 14.7090308], [121.0387608, 14.708583], [121.0387662, 14.7084187], [121.0389081, 14.7083563], [121.0396347, 14.7080226], [121.0400809, 14.7080861], [121.0401844, 14.7080705], [121.0415248, 14.7075016], [121.0415217, 14.7066561], [121.0418078, 14.7058151], [121.0419812, 14.7052453], [121.0440479, 14.7052824], [121.0454888, 14.7052707], [121.0455003, 14.704594], [121.0335323, 14.710492]]], [[[121.0335323, 14.710492], [121.0331848, 14.7105806], [121.0328912, 14.7106831], [121.0325778, 14.7107582], [121.0323155, 14.710777], [121.032077, 14.7107634], [121.0316378, 14.7106994], [121.0312412, 14.7104529], [121.0311279, 14.7104447], [121.030941, 14.710524], [121.0309143, 14.7105568], [121.0308952, 14.7106455], [121.0308448, 14.7108677], [121.03083, 14.71103], [121.0308498, 14.7113243], [121.0308177, 14.7115253], [121.0304332, 14.7119779], [121.0302602, 14.7121841], [121.0302126, 14.7123197], [121.0301489, 14.7125032], [121.0301301, 14.7127069], [121.0301154, 14.7128937], [121.0300577, 14.7130836], [121.0298619, 14.7134619], [121.0294864, 14.7141586], [121.0293449, 14.7144433], [121.0293087, 14.7147728], [121.0335323, 14.710492]]], [[[121.0293087, 14.7147728], [121.0291542, 14.7153668], [121.0290138, 14.7156003], [121.0287349, 14.7157145], [121.0283289, 14.7157662], [121.0281002, 14.7157648], [121.0279029, 14.7158203], [121.0270821, 14.7161971], [121.0266213, 14.7163382], [121.0262578, 14.7165558], [121.0293087, 14.7147728]]], [[[121.0262578, 14.7165558], [121.0262522, 14.7165584], [121.0258231, 14.7167559], [121.0253098, 14.7168501], [121.0251415, 14.7168735], [121.0250607, 14.7168291], [121.0249346, 14.716728], [121.0246889, 14.7164617], [121.0245484, 14.7163751], [121.0244626, 14.7163544], [121.0243501, 14.7163864], [121.0240012, 14.7165438], [121.0238292, 14.7165845], [121.0235981, 14.7166319], [121.0234165, 14.7165983], [121.0233199, 14.7164524], [121.0232288, 14.7163362], [121.0231121, 14.7162296], [121.0226633, 14.7159795], [121.0222306, 14.7157714], [121.0221755, 14.7157449], [121.0220137, 14.7156073], [121.0219202, 14.7154007], [121.0218662, 14.7151714], [121.0217992, 14.7147901], [121.0217817, 14.7144236], [121.0217616, 14.7140793], [121.0217375, 14.7138769], [121.0216409, 14.7134592], [121.0214748, 14.7129387], [121.0213943, 14.7127752], [121.0212844, 14.7126611], [121.0210365, 14.7125168], [121.0207591, 14.7123378], [121.0203095, 14.7120758], [121.0200982, 14.7120057], [121.019994, 14.712009], [121.0198659, 14.7120799], [121.0197519, 14.7121595], [121.0196051, 14.7122711], [121.0193949, 14.7123653], [121.0191632, 14.7123912], [121.0189148, 14.7123876], [121.0187083, 14.7123581], [121.0186492, 14.7123497], [121.0185027, 14.7122529], [121.0182083, 14.7120395], [121.0180436, 14.7118786], [121.0178509, 14.7115213], [121.0176605, 14.7111685], [121.0175941, 14.7108606], [121.0175281, 14.7105281], [121.0175394, 14.710322], [121.0176712, 14.7096067], [121.017741, 14.709215], [121.0178876, 14.7089756], [121.0182097, 14.7085714], [121.0185473, 14.7082091], [121.0186826, 14.7078134], [121.0188085, 14.7076136], [121.0188749, 14.7073264], [121.0188682, 14.7071598], [121.0189258, 14.7069833], [121.0188939, 14.7068484], [121.0188954, 14.7067631], [121.0188513, 14.7066736], [121.0188381, 14.7064636], [121.018795, 14.7063539], [121.0186705, 14.7061385], [121.0185632, 14.7059991], [121.0184054, 14.7057403], [121.0180179, 14.7053009], [121.0177571, 14.705007], [121.0176421, 14.7046522], [121.0176811, 14.7044495], [121.0177136, 14.7043496], [121.0177575, 14.7042541], [121.017801, 14.704162], [121.0178362, 14.7040907], [121.0178736, 14.7039819], [121.0179092, 14.7038465], [121.0179495, 14.7037269], [121.0179703, 14.703623], [121.017979, 14.703501], [121.0179631, 14.7033858], [121.0262578, 14.7165558]]], [[[121.0198579, 14.7036248], [121.0194527, 14.703506], [121.0193842, 14.7034905], [121.0189913, 14.7033725], [121.0189555, 14.7033939], [121.0188763, 14.7034459], [121.0187187, 14.703518], [121.0184585, 14.7036375], [121.0183135, 14.7035407], [121.0182391, 14.7034735], [121.0179631, 14.7033858], [121.0198579, 14.7036248]]]]}}, {"type": "Feature", "id": "Santa Lucia", "properties": {"barangay": "Santa Lucia", "osm_name": "Santa Lucia", "osm_id": 1751068}, "geometry": {"type": "MultiPolygon", "coordinates": [[[[121.0571029, 14.7054296], [121.0571199, 14.7045937], [121.0558686, 14.7045504], [121.054622, 14.704524], [121.0529031, 14.704501], [121.0526078, 14.7041024], [121.0526141, 14.7040803], [121.0510553, 14.7040487], [121.0507792, 14.7038397], [121.0509168, 14.7036095], [121.0508987, 14.7034527], [121.0502169, 14.7029572], [121.0500954, 14.7027505], [121.0499797, 14.7025537], [121.0497494, 14.7023637], [121.0496878, 14.7023129], [121.0493874, 14.7021884], [121.0491729, 14.702122], [121.0489154, 14.7021386], [121.0484921, 14.7021705], [121.0480415, 14.7022652], [121.047897, 14.7023954], [121.0571029, 14.7054296]]], [[[121.047897, 14.7023954], [121.0475163, 14.7032275], [121.0468517, 14.7033249], [121.0467778, 14.7040567], [121.0455003, 14.704594], [121.047897, 14.7023954]]], [[[121.0455003, 14.704594], [121.0468975, 14.7050443], [121.0474573, 14.7053168], [121.0472436, 14.7061441], [121.0472437, 14.7061633], [121.0471759, 14.7063696], [121.047172, 14.7070541], [121.0468812, 14.7074933], [121.0468267, 14.7079836], [121.0467387, 14.7084147], [121.0466027, 14.7087975], [121.0465679, 14.7088773], [121.0455003, 14.704594]]], [[[121.0465679, 14.7088773], [121.0465237, 14.708988], [121.0465472, 14.7090729], [121.0466418, 14.7091216], [121.0467319, 14.7091885], [121.0467944, 14.7093433], [121.0467645, 14.709431], [121.0466762, 14.7095276], [121.0464922, 14.709637], [121.0459819, 14.7097493], [121.0459727, 14.7098169], [121.0460219, 14.7098539], [121.0460159, 14.7099082], [121.0460252, 14.7099786], [121.0465679, 14.7088773]]], [[[121.0532718, 14.7087518], [121.0531008, 14.7088776], [121.0529393, 14.7089201], [121.0526702, 14.7089754], [121.0525775, 14.7089945], [121.0524106, 14.7090502], [121.0523142, 14.70919], [121.0522592, 14.7094444], [121.0521652, 14.7095962], [121.0521124, 14.7096219], [121.0520596, 14.7096098], [121.0519725, 14.70958], [121.0518074, 14.709502], [121.0517011, 14.7094495], [121.0514618, 14.7095386], [121.0511934, 14.7097725], [121.0510239, 14.710052], [121.0508377, 14.710383], [121.0506484, 14.7104971], [121.0501809, 14.7104382], [121.0497111, 14.7103452], [121.0493054, 14.7104269], [121.0491101, 14.7103735], [121.0490738, 14.7103636], [121.048758, 14.7101643], [121.0485135, 14.7099462], [121.0483451, 14.7098081], [121.0481756, 14.7097397], [121.0480841, 14.7097442], [121.0478966, 14.7098479], [121.0476511, 14.7099683], [121.0475299, 14.7100075], [121.0473701, 14.7099971], [121.0471017, 14.7099751], [121.04674, 14.7099718], [121.0463109, 14.7099967], [121.0461331, 14.7100018], [121.0460581, 14.7100518], [121.0460252, 14.7100798], [121.0532718, 14.7087518]]], [[[121.0571029, 14.7054296], [121.0566337, 14.7058723], [121.0563795, 14.7061468], [121.0560971, 14.7065236], [121.0559899, 14.7066667], [121.0558208, 14.7069037], [121.0557445, 14.7070507], [121.0556805, 14.7071274], [121.0555469, 14.7072759], [121.055469, 14.7073983], [121.0554247, 14.7074988], [121.0554233, 14.7075871], [121.0554575, 14.7077537], [121.0554126, 14.7078776], [121.0553388, 14.707984], [121.055261, 14.70808], [121.0551989, 14.7081649], [121.0551175, 14.7082791], [121.0549757, 14.7084292], [121.0549039, 14.7084905], [121.0547948, 14.7085687], [121.0547105, 14.7086], [121.0545786, 14.7086114], [121.0542782, 14.708616], [121.054073, 14.7085961], [121.0537644, 14.7086014], [121.0536182, 14.7086144], [121.0534605, 14.7086639], [121.0533839, 14.7086937], [121.0532718, 14.7087518], [121.0571029, 14.7054296]]]]}}, {"type": "Feature", "id": "Santa Monica", "properties": {"barangay": "Santa Monica", "osm_name": "Santa Monica", "osm_id": 1751069}, "geometry": {"type": "MultiPolygon", "coordinates": [[[[121.0496433, 14.7267623], [121.0499034, 14.7258944], [121.0502654, 14.7247504], [121.0504733, 14.7240163], [121.0507481, 14.7230576], [121.0513267, 14.722261], [121.0487152, 14.722219], [121.048693, 14.7211262], [121.0487126, 14.7207883], [121.0487113, 14.7184144], [121.0487081, 14.7181592], [121.0496433, 14.7267623]]], [[[121.0496433, 14.7267623], [121.0487185, 14.7267596], [121.0478683, 14.7268053], [121.0474437, 14.7267891], [121.0471929, 14.7267937], [121.0455247, 14.7267738], [121.0453019, 14.7267739], [121.045066, 14.7267583], [121.0448984, 14.7267414], [121.0447322, 14.7266319], [121.0445374, 14.7265742], [121.0442177, 14.7263085], [121.0441892, 14.726193], [121.0438677, 14.7258017], [121.0436042, 14.7256954], [121.043284, 14.7255904], [121.0429384, 14.7253844], [121.0429147, 14.7255778], [121.0427309, 14.7257257], [121.042735, 14.725989], [121.0428798, 14.7261226], [121.0428934, 14.726579], [121.0429927, 14.7266056], [121.0430803, 14.7270346], [121.0430183, 14.7272787], [121.0430183, 14.7276866], [121.0428507, 14.7277146], [121.0427781, 14.7279157], [121.0426719, 14.7279604], [121.041979, 14.7281057], [121.0417275, 14.7281504], [121.0416158, 14.7284019], [121.0413811, 14.7280834], [121.0413196, 14.7282119], [121.0410235, 14.7280834], [121.0409215, 14.7277631], [121.0408, 14.7273625], [121.0407911, 14.72714], [121.0407539, 14.7270099], [121.0404521, 14.7267953], [121.0403106, 14.7268847], [121.0398862, 14.7266965], [121.0397334, 14.7268438], [121.0496433, 14.7267623]]], [[[121.0397334, 14.7268438], [121.0394521, 14.7265209], [121.0390348, 14.7262977], [121.0397334, 14.7268438]]], [[[121.0390348, 14.7262977], [121.0391757, 14.725797], [121.0394017, 14.7255823], [121.0396319, 14.7253637], [121.0396643, 14.7253089], [121.0397756, 14.7247834], [121.0399801, 14.7245093], [121.040032, 14.7240537], [121.0400958, 14.7238282], [121.0400511, 14.7235733], [121.0400871, 14.723358], [121.0400968, 14.7231187], [121.0401052, 14.7228387], [121.0403964, 14.722652], [121.040378, 14.7219648], [121.0390348, 14.7262977]]], [[[121.0404291, 14.7218028], [121.0404619, 14.721727], [121.0405099, 14.721606], [121.0405612, 14.7215226], [121.0405827, 14.7213999], [121.0405867, 14.7212444], [121.0404834, 14.7210849], [121.0404705, 14.7210346], [121.0405143, 14.7208644], [121.040659, 14.7205963], [121.0407576, 14.7203646], [121.0407818, 14.7202548], [121.0406792, 14.720116], [121.040668, 14.7200769], [121.0407671, 14.7198637], [121.0410552, 14.7195603], [121.0411506, 14.719245], [121.0411341, 14.7191284], [121.0411167, 14.7190563], [121.0404291, 14.7218028]]], [[[121.0460252, 14.7100798], [121.045984, 14.7102054], [121.0460574, 14.7104115], [121.046219, 14.7105981], [121.046361, 14.7107014], [121.0467486, 14.7109051], [121.0469001, 14.7110597], [121.0470558, 14.7112651], [121.0470603, 14.7113701], [121.0468657, 14.7118121], [121.046788, 14.7119105], [121.04668, 14.7120473], [121.0463628, 14.7122458], [121.0461321, 14.7125295], [121.0459071, 14.712751], [121.04565, 14.7128774], [121.0452638, 14.7129189], [121.0449875, 14.7128681], [121.0446371, 14.7126643], [121.0444294, 14.7125356], [121.0441094, 14.7122657], [121.0436705, 14.7119655], [121.0434683, 14.7119706], [121.0434184, 14.7119718], [121.0432508, 14.7120946], [121.0431034, 14.7122324], [121.0429966, 14.7123962], [121.0429383, 14.7125755], [121.0429079, 14.7127791], [121.0429966, 14.7130402], [121.0431543, 14.7133731], [121.0432095, 14.7135], [121.0432103, 14.7136163], [121.0430658, 14.7139198], [121.0428879, 14.7146356], [121.0428612, 14.7148887], [121.0429258, 14.7150544], [121.0430697, 14.7151967], [121.0434241, 14.7154815], [121.0436062, 14.7155733], [121.0438905, 14.7157166], [121.0442338, 14.7158245], [121.0443492, 14.7159932], [121.0443099, 14.7161024], [121.0441341, 14.7162898], [121.0440041, 14.7165224], [121.0439937, 14.7165682], [121.0438154, 14.7173538], [121.0437188, 14.717601], [121.0436498, 14.7178396], [121.0434931, 14.7184845], [121.0434293, 14.7185908], [121.0433855, 14.7186606], [121.0433491, 14.718696], [121.0432445, 14.7187068], [121.0430669, 14.7186606], [121.0427013, 14.7184907], [121.042527, 14.7184298], [121.0421883, 14.7183594], [121.0420877, 14.7183753], [121.0418588, 14.7185368], [121.0417516, 14.7185946], [121.0415498, 14.7187822], [121.0413025, 14.7189784], [121.0411167, 14.7190563], [121.0460252, 14.7100798]]], [[[121.0532718, 14.7087518], [121.0531008, 14.7088776], [121.0529393, 14.7089201], [121.0526702, 14.7089754], [121.0525775, 14.7089945], [121.0524106, 14.7090502], [121.0523142, 14.70919], [121.0522592, 14.7094444], [121.0521652, 14.7095962], [121.0521124, 14.7096219], [121.0520596, 14.7096098], [121.0519725, 14.70958], [121.0518074, 14.709502], [121.0517011, 14.7094495], [121.0514618, 14.7095386], [121.0511934, 14.7097725], [121.0510239, 14.710052], [121.0508377, 14.710383], [121.0506484, 14.7104971], [121.0501809, 14.7104382], [121.0497111, 14.7103452], [121.0493054, 14.7104269], [121.0491101, 14.7103735], [121.0490738, 14.7103636], [121.048758, 14.7101643], [121.0485135, 14.7099462], [121.0483451, 14.7098081], [121.0481756, 14.7097397], [121.0480841, 14.7097442], [121.0478966, 14.7098479], [121.0476511, 14.7099683], [121.0475299, 14.7100075], [121.0473701, 14.7099971], [121.0471017, 14.7099751], [121.04674, 14.7099718], [121.0463109, 14.7099967], [121.0461331, 14.7100018], [121.0460581, 14.7100518], [121.0460252, 14.7100798], [121.0532718, 14.7087518]]], [[[121.0533787, 14.7121965], [121.0533801, 14.7116309], [121.0533582, 14.7114735], [121.0534046, 14.7113203], [121.0533891, 14.7110888], [121.0535266, 14.7108964], [121.0533908, 14.7107325], [121.0533687, 14.709918], [121.0533575, 14.709866], [121.0533537, 14.7097724], [121.0533523, 14.7095], [121.0533434, 14.7094989], [121.0533405, 14.7093735], [121.0533278, 14.7087807], [121.0532718, 14.7087518], [121.0533787, 14.7121965]]], [[[121.0487081, 14.7181592], [121.0486784, 14.7153698], [121.0506302, 14.7153444], [121.0509319, 14.7153381], [121.052008, 14.7153566], [121.0521207, 14.7149227], [121.0521128, 14.7137903], [121.0519004, 14.7134727], [121.0516372, 14.7132095], [121.05334, 14.713225], [121.0533739, 14.7127719], [121.0534003, 14.7124593], [121.0533787, 14.7121965], [121.0487081, 14.7181592]]]]}}]}